{"type": "FeatureCollection", "features": [ {"type": "Feature", "properties": {"norad_id": 30714, "name": "FENGYUN 1C DEB", "group": "fengyun-1c-debris", "lat": 54.21435690303764, "lon": -140.1993992273093, "alt_km": 925.9053878655459, "timestamp": "2025-12-04T13:52:00.720960+00:00", "meta": {"OBJECT_NAME": "FENGYUN 1C DEB", "OBJECT_ID": "1999-025ARY", "EPOCH": "2025-12-03T18:47:02.023584", "MEAN_MOTION": 14.03266102, "ECCENTRICITY": 0.00669072, "INCLINATION": 98.8386, "RA_OF_ASC_NODE": 26.5627, "ARG_OF_PERICENTER": 307.9084, "MEAN_ANOMALY": 122.279, "EPHEMERIS_TYPE": 0, "CLASSIFICATION_TYPE": "U", "NORAD_CAT_ID": 30714, "ELEMENT_SET_NO": 999, "REV_AT_EPOCH": 95867, "BSTAR": 0.00097657369, "MEAN_MOTION_DOT": 1.511e-05, "MEAN_MOTION_DDOT": 0}, "tle": {"line1": "1 30714U 99025ARY 25337.78266231  .00001511  00000+0  97657-3 0  9999", "line2": "2 30714  98.8386  26.5627 0066907 307.9084 122.2790 14.03266102958679"}}, "geometry": {"type": "Point", "coordinates": [-140.1993992273093, 54.21435690303764]}}, {"type": "Feature", "properties": {"norad_id": 30715, "name": "FENGYUN 1C DEB", "group": "fengyun-1c-debris", "lat": 14.168554504981914, "lon": 45.40931628395163, "alt_km": 893.466102499202, "timestamp": "2025-12-04T13:52:00.720972+00:00", "meta": {"OBJECT_NAME": "FENGYUN 1C DEB", "OBJECT_ID": "1999-025ARZ", "EPOCH": "2025-12-03T17:25:39.410976", "MEAN_MOTION": 14.14587376, "ECCENTRICITY": 0.00678476, "INCLINATION": 98.9782, "RA_OF_ASC_NODE": 46.8406, "ARG_OF_PERICENTER": 193.1012, "MEAN_ANOMALY": 166.8401, "EPHEMERIS_TYPE": 0, "CLASSIFICATION_TYPE": "U", "NORAD_CAT_ID": 30715, "ELEMENT_SET_NO": 999, "REV_AT_EPOCH": 96054, "BSTAR": 0.0027957507, "MEAN_MOTION_DOT": 5.448e-05, "MEAN_MOTION_DDOT": 0}, "tle": {"line1": "1 30715U 99025ARZ 25337.72615059  .00005448  00000+0  27958-2 0  9999", "line2": "2 30715  98.9782  46.8406 0067847 193.1012 166.8401 14.14587376960544"}}, "geometry": {"type": "Point", "coordinates": [45.40931628395163, 14.168554504981914]}}, {"type": "Feature", "properties": {"norad_id": 30716, "name": "FENGYUN 1C DEB", "group": "fengyun-1c-debris", "lat": 76.88683757454794, "lon": 22.91130839453879, "alt_km": 612.6821037544505, "timestamp": "2025-12-04T13:52:00.720982+00:00", "meta": {"OBJECT_NAME": "FENGYUN 1C DEB", "OBJECT_ID": "1999-025ASA", "EPOCH": "2025-12-04T05:33:07.573824", "MEAN_MOTION": 14.78565992, "ECCENTRICITY": 0.00200017, "INCLINATION": 98.8719, "RA_OF_ASC_NODE": 160.4222, "ARG_OF_PERICENTER": 112.3344, "MEAN_ANOMALY": 304.3532, "EPHEMERIS_TYPE": 0, "CLASSIFICATION_TYPE": "U", "NORAD_CAT_ID": 30716, "ELEMENT_SET_NO": 999, "REV_AT_EPOCH": 97698, "BSTAR": 0.010229497, "MEAN_MOTION_DOT": 0.00075805, "MEAN_MOTION_DDOT": 0}, "tle": {"line1": "1 30716U 99025ASA 25338.23133766  .00075805  00000+0  10229-1 0  9993", "line2": "2 30716  98.8719 160.4222 0020001 112.3344 304.3532 14.78565992976984"}}, "geometry": {"type": "Point", "coordinates": [22.91130839453879, 76.88683757454794]}}, {"type": "Feature", "properties": {"norad_id": 30717, "name": "FENGYUN 1C DEB", "group": "fengyun-1c-debris", "lat": -32.839370462285736, "lon": -136.71302065688292, "alt_km": 816.9354675385548, "timestamp": "2025-12-04T13:52:00.720992+00:00", "meta": {"OBJECT_NAME": "FENGYUN 1C DEB", "OBJECT_ID": "1999-025ASB", "EPOCH": "2025-11-30T02:21:23.039712", "MEAN_MOTION": 14.20428729, "ECCENTRICITY": 0.00475668, "INCLINATION": 99.0182, "RA_OF_ASC_NODE": 44.6037, "ARG_OF_PERICENTER": 294.0563, "MEAN_ANOMALY": 65.5639, "EPHEMERIS_TYPE": 0, "CLASSIFICATION_TYPE": "U", "NORAD_CAT_ID": 30717, "ELEMENT_SET_NO": 999, "REV_AT_EPOCH": 96357, "BSTAR": 0.0015014558, "MEAN_MOTION_DOT": 3.211e-05, "MEAN_MOTION_DDOT": 0}, "tle": {"line1": "1 30717U 99025ASB 25334.09818333  .00003211  00000+0  15015-2 0  9995", "line2": "2 30717  99.0182  44.6037 0047566 294.0563  65.5639 14.20428729963573"}}, "geometry": {"type": "Point", "coordinates": [-136.71302065688292, -32.839370462285736]}}, {"type": "Feature", "properties": {"norad_id": 30718, "name": "FENGYUN 1C DEB", "group": "fengyun-1c-debris", "lat": 7.249276464235874, "lon": -119.97602784466872, "alt_km": 771.7558641156638, "timestamp": "2025-12-04T13:52:00.721003+00:00", "meta": {"OBJECT_NAME": "FENGYUN 1C DEB", "OBJECT_ID": "1999-025ASC", "EPOCH": "2025-12-03T21:53:03.840000", "MEAN_MOTION": 14.24238658, "ECCENTRICITY": 0.0057673, "INCLINATION": 98.8919, "RA_OF_ASC_NODE": 58.2093, "ARG_OF_PERICENTER": 181.2057, "MEAN_ANOMALY": 178.8991, "EPHEMERIS_TYPE": 0, "CLASSIFICATION_TYPE": "U", "NORAD_CAT_ID": 30718, "ELEMENT_SET_NO": 999, "REV_AT_EPOCH": 96648, "BSTAR": 0.0034219201, "MEAN_MOTION_DOT": 7.993e-05, "MEAN_MOTION_DDOT": 0}, "tle": {"line1": "1 30718U 99025ASC 25337.91185000  .00007993  00000+0  34219-2 0  9996", "line2": "2 30718  98.8919  58.2093 0057673 181.2057 178.8991 14.24238658966483"}}, "geometry": {"type": "Point", "coordinates": [-119.97602784466872, 7.249276464235874]}}, {"type": "Feature", "properties": {"norad_id": 30719, "name": "FENGYUN 1C DEB", "group": "fengyun-1c-debris", "lat": -57.09792134536325, "lon": -74.22695954272542, "alt_km": 696.4606881256132, "timestamp": "2025-12-04T13:52:00.721013+00:00", "meta": {"OBJECT_NAME": "FENGYUN 1C DEB", "OBJECT_ID": "1999-025ASD", "EPOCH": "2025-12-04T02:54:04.965984", "MEAN_MOTION": 14.58756712, "ECCENTRICITY": 0.00116973, "INCLINATION": 98.8874, "RA_OF_ASC_NODE": 119.2805, "ARG_OF_PERICENTER": 217.2398, "MEAN_ANOMALY": 142.7989, "EPHEMERIS_TYPE": 0, "CLASSIFICATION_TYPE": "U", "NORAD_CAT_ID": 30719, "ELEMENT_SET_NO": 999, "REV_AT_EPOCH": 97323, "BSTAR": 0.0087836278, "MEAN_MOTION_DOT": 0.00041258, "MEAN_MOTION_DDOT": 0}, "tle": {"line1": "1 30719U 99025ASD 25338.12089081  .00041258  00000+0  87836-2 0  9998", "line2": "2 30719  98.8874 119.2805 0011697 217.2398 142.7989 14.58756712973238"}}, "geometry": {"type": "Point", "coordinates": [-74.22695954272542, -57.09792134536325]}}, {"type": "Feature", "properties": {"norad_id": 30720, "name": "FENGYUN 1C DEB", "group": "fengyun-1c-debris", "lat": 49.753079130045634, "lon": 140.9325126081675, "alt_km": 777.6879925868643, "timestamp": "2025-12-04T13:52:00.721024+00:00", "meta": {"OBJECT_NAME": "FENGYUN 1C DEB", "OBJECT_ID": "1999-025ASE", "EPOCH": "2025-12-01T10:17:46.773312", "MEAN_MOTION": 14.2908859, "ECCENTRICITY": 0.00323724, "INCLINATION": 99.0369, "RA_OF_ASC_NODE": 148.5071, "ARG_OF_PERICENTER": 2.1711, "MEAN_ANOMALY": 57.7271, "EPHEMERIS_TYPE": 0, "CLASSIFICATION_TYPE": "U", "NORAD_CAT_ID": 30720, "ELEMENT_SET_NO": 999, "REV_AT_EPOCH": 97327, "BSTAR": 0.00040425799, "MEAN_MOTION_DOT": 9.83e-06, "MEAN_MOTION_DDOT": 0}, "tle": {"line1": "1 30720U 99025ASE 25335.42901358  .00000983  00000+0  40426-3 0  9995", "line2": "2 30720  99.0369 148.5071 0032372   2.1711  57.7271 14.29088590973278"}}, "geometry": {"type": "Point", "coordinates": [140.9325126081675, 49.753079130045634]}}, {"type": "Feature", "properties": {"norad_id": 30721, "name": "FENGYUN 1C DEB", "group": "fengyun-1c-debris", "lat": 59.86818415513182, "lon": -55.37645320449967, "alt_km": 658.2510996282372, "timestamp": "2025-12-04T13:52:00.721034+00:00", "meta": {"OBJECT_NAME": "FENGYUN 1C DEB", "OBJECT_ID": "1999-025ASF", "EPOCH": "2025-12-03T15:03:11.516832", "MEAN_MOTION": 14.7127635, "ECCENTRICITY": 0.00273375, "INCLINATION": 98.71, "RA_OF_ASC_NODE": 108.2926, "ARG_OF_PERICENTER": 9.5726, "MEAN_ANOMALY": 117.1394, "EPHEMERIS_TYPE": 0, "CLASSIFICATION_TYPE": "U", "NORAD_CAT_ID": 30721, "ELEMENT_SET_NO": 999, "REV_AT_EPOCH": 97708, "BSTAR": 0.0047409938, "MEAN_MOTION_DOT": 0.00029504, "MEAN_MOTION_DDOT": 0}, "tle": {"line1": "1 30721U 99025ASF 25337.62721663  .00029504  00000+0  47410-2 0  9998", "line2": "2 30721  98.7100 108.2926 0027337   9.5726 117.1394 14.71276350977082"}}, "geometry": {"type": "Point", "coordinates": [-55.37645320449967, 59.86818415513182]}}, {"type": "Feature", "properties": {"norad_id": 30723, "name": "FENGYUN 1C DEB", "group": "fengyun-1c-debris", "lat": 15.963348153779263, "lon": -113.12959345282344, "alt_km": 760.9740959553892, "timestamp": "2025-12-04T13:52:00.721044+00:00", "meta": {"OBJECT_NAME": "FENGYUN 1C DEB", "OBJECT_ID": "1999-025ASH", "EPOCH": "2025-12-03T17:42:49.827744", "MEAN_MOTION": 14.41129588, "ECCENTRICITY": 0.00148167, "INCLINATION": 98.8448, "RA_OF_ASC_NODE": 63.4491, "ARG_OF_PERICENTER": 288.3809, "MEAN_ANOMALY": 201.4898, "EPHEMERIS_TYPE": 0, "CLASSIFICATION_TYPE": "U", "NORAD_CAT_ID": 30723, "ELEMENT_SET_NO": 999, "REV_AT_EPOCH": 97241, "BSTAR": 0.0032543146, "MEAN_MOTION_DOT": 0.00010469, "MEAN_MOTION_DDOT": 0}, "tle": {"line1": "1 30723U 99025ASH 25337.73807671  .00010469  00000+0  32543-2 0  9997", "line2": "2 30723  98.8448  63.4491 0014816 288.3809 201.4898 14.41129588972411"}}, "geometry": {"type": "Point", "coordinates": [-113.12959345282344, 15.963348153779263]}}, {"type": "Feature", "properties": {"norad_id": 30724, "name": "FENGYUN 1C DEB", "group": "fengyun-1c-debris", "lat": -16.30762667923468, "lon": -20.171304148756892, "alt_km": 769.6549571933201, "timestamp": "2025-12-04T13:52:00.721054+00:00", "meta": {"OBJECT_NAME": "FENGYUN 1C DEB", "OBJECT_ID": "1999-025ASJ", "EPOCH": "2025-12-02T10:57:10.970208", "MEAN_MOTION": 14.37002332, "ECCENTRICITY": 0.00930548, "INCLINATION": 99.3161, "RA_OF_ASC_NODE": 160.2865, "ARG_OF_PERICENTER": 290.0804, "MEAN_ANOMALY": 99.0491, "EPHEMERIS_TYPE": 0, "CLASSIFICATION_TYPE": "U", "NORAD_CAT_ID": 30724, "ELEMENT_SET_NO": 999, "REV_AT_EPOCH": 98305, "BSTAR": 0.00053378755, "MEAN_MOTION_DOT": 1.61e-05, "MEAN_MOTION_DDOT": 0}, "tle": {"line1": "1 30724U 99025ASJ 25336.45637697  .00001610  00000+0  53379-3 0  9994", "line2": "2 30724  99.3161 160.2865 0093054 290.0804  99.0491 14.37002332983051"}}, "geometry": {"type": "Point", "coordinates": [-20.171304148756892, -16.30762667923468]}}]}